"name","latitud","longitud","formattedAddress__001","formattedAddress__002","formattedAddress__003","formattedAddress__004","location__type","location__coordinates__001","location__coordinates__002"
"Oscars English School","53.34421435925228","-6.263200257387125","33-34 Dame St","Dublin","Dublin City","Ireland","Point","53.34421435925228","-6.263200257387125"
"Atlas Language School","53.33006106140623","-6.264892143170637","S Richmond St","Dublin","Dublin City","Ireland","Point","53.33006106140623","-6.264892143170637"
"ULearn English School Dublin","53.33660541483585","-6.262977340225007","89 Harcourt  Street","Dublin","Dublin City","Ireland","Point","53.33660541483585","-6.262977340225007"
"Delfin English School","53.35349104434612","-6.262041520977369","2 Parnell Square East","Dublin","Dublin City","Ireland","Point","53.35349104434612","-6.262041520977369"
"Horner School of English","53.33659681559401","-6.24915733973135","80 Fitzwilliam St","Dublin","Dublin City","Ireland","Point","53.33659681559401","-6.24915733973135"
"EF International Language Centres","53.334935066715836","-6.252814187074298","29-30 Fitzwilliam Sq S","Dublin","Dublin City","Ireland","Point","53.334935066715836","-6.252814187074298"
"Berlitz","53.3416903415523","-6.250493795543195","Ireland","","","","Point","53.3416903415523","-6.250493795543195"
"Star of the Sea B.N.S.","53.33622783907984","-6.218359969977954","Leahy's Tce, Sandymount","Dublin","Dublin City","Ireland","Point","53.33622783907984","-6.218359969977954"
"Kaplan International Colleges","53.345182187269835","-6.268933925436109","The Presbytery Building, 7 Exchange St Lower","Dublin","Dublin City","Ireland","Point","53.345182187269835","-6.268933925436109"
"ISI - English School","53.347582992908656","-6.269233708200506","4 Meetinghouse Ln, Mary's Abbey","Dublin","Dublin City","Ireland","Point","53.347582992908656","-6.269233708200506"
"Alpha College of English","53.35503060118229","-6.261654857199284","4 N Great George's St","Dublin","Dublin City","Ireland","Point","53.35503060118229","-6.261654857199284"
"Alliance Française","53.34212898219179","-6.254394355610989","1, Kildare Street (Nassau Street)","Dublin","Dublin City","Ireland","Point","53.34212898219179","-6.254394355610989"
"The Linguaviva Centre","53.333025743249465","-6.253924369812012","45 Lower Leeson Street","Dublin","Dublin City","Ireland","Point","53.333025743249465","-6.253924369812012"
"Loreto Junior School","53.336945","-6.256788935794907","St Stephens Green","Dublin","Dublin City","Ireland","Point","53.336945","-6.256788935794907"
"Liffey College","53.34170347046905","-6.275641772467993","1-4 Swift's Alley","Dublin","Dublin City","Ireland","Point","53.34170347046905","-6.275641772467993"
"ibat College","53.34565196380367","-6.265669702062497","Dublin","Dublin City","Ireland","","Point","53.34565196380367","-6.265669702062497"
"International House","53.352818040335606","-6.250404266737426","3 Harbourmaster Pl.","Dublin","Dublin City","Ireland","Point","53.352818040335606","-6.250404266737426"
"OHC","53.35056089630498","-6.269544724187393","Zhivago Building, 73 Capel St","Dublin","Dublin City","Ireland","Point","53.35056089630498","-6.269544724187393"
"Paul Lanigan - Sandler Training","53.35804360921297","-6.228389739990234","Clontarf","Dublin","Dublin City","Ireland","Point","53.35804360921297","-6.228389739990234"
"CES","53.34366489579382","-6.263823977748151","15-16 Dame Court","Dublin","Dublin City","Ireland","Point","53.34366489579382","-6.263823977748151"
"St Mary's College","53.32739911129248","-6.267081699050448","73-79 Lwr Rathmines Rd","Dublin","Dublin City","Ireland","Point","53.32739911129248","-6.267081699050448"
"Trinity Biomedical Sciences Institute","53.34373629708807","-6.247618802729551","Pearse St","Dublin","Dublin City","Ireland","Point","53.34373629708807","-6.247618802729551"
"International Education Academy","53.35221303889025","-6.267257283113832","41 Dominick St Lwr","Dublin","Dublin City","Ireland","Point","53.35221303889025","-6.267257283113832"
"American College Dublin","53.34127652306182","-6.250260517220014","2 Merrion Sq N","Dublin","Dublin City","Ireland","Point","53.34127652306182","-6.250260517220014"
"Centre of English Studies","53.343663628844574","-6.263813606609632","31 Dame St","Dublin","Dublin City","Ireland","Point","53.343663628844574","-6.263813606609632"
"St Conleth's College","53.32801044202312","-6.240218334665652","28 Clyde Rd.","Dublin","Dublin City","Ireland","Point","53.32801044202312","-6.240218334665652"
"Catholic University School","53.33549667164036","-6.255057896658783","Lwr Leeson St","Dublin","Dublin City","Ireland","Point","53.33549667164036","-6.255057896658783"
"The Institute of Education","53.3351908465303","-6.25492802668536","85 Leeson St","Dublin","Dublin City","Ireland","Point","53.3351908465303","-6.25492802668536"
"Piccola Accademia di Italiano","53.335892718013504","-6.257199347019196","1 Lwr Leeson St","Dublin","Dublin City","Ireland","Point","53.335892718013504","-6.257199347019196"
"Berkeley Library","53.34361739975458","-6.256230288851449","Trinity College","Dublin","Dublin City","Ireland","Point","53.34361739975458","-6.256230288851449"
"Swan Training Institute","53.342785446303715","-6.259639446689852","11 Grafton St","Dublin","Dublin City","Ireland","Point","53.342785446303715","-6.259639446689852"
"Dublin Cultural Institute","53.3474191299928","-6.259494899589265","34 A Bachelor' Walk, Dublin 1","Dublin","Dublin City","Ireland","Point","53.3474191299928","-6.259494899589265"
"SEDA College","53.35025024859676","-6.269268732317438","68-72 Capel St","Dublin","Dublin City","Ireland","Point","53.35025024859676","-6.269268732317438"
"Everest Language School","53.34632985059277","-6.259305609741719","15 Westmoreland St","Dublin","Dublin City","Ireland","Point","53.34632985059277","-6.259305609741719"
"Leinster College","53.33567959088766","-6.263332111401354","Clarendon Stree","Dublin","Dublin City","Ireland","Point","53.33567959088766","-6.263332111401354"
"Central School of English","53.35030795695784","-6.257357597351074","5 Talbot St","Dublin","Dublin City","Ireland","Point","53.35030795695784","-6.257357597351074"
"Marino College of Further Education","53.35487724984512","-6.24638295064081","171 North Strand Rd.","Dublin","Dublin City","Ireland","Point","53.35487724984512","-6.24638295064081"
"Frances King English School","53.34005382422702","-6.247407495647452","Dublin","Dublin City","Ireland","","Point","53.34005382422702","-6.247407495647452"
"Synge Street CBS","53.333515286639916","-6.26694309595204","Synge St","Dublin","Dublin City","Ireland","Point","53.333515286639916","-6.26694309595204"
"English in Dublin School","53.338297903103644","-6.248052504891251","53-87 Merrion Sq S","Dublin","Dublin City","Ireland","Point","53.338297903103644","-6.248052504891251"
"Art, Design & Printing @ DIT","53.35578645509017","-6.256923079490661","41 Mountjoy Sq","Dublin","Dublin City","Ireland","Point","53.35578645509017","-6.256923079490661"
"Apollo Language Centre","53.335513455560296","-6.248917222055752","5 Lad Lane","Dublin","Ireland","","Point","53.335513455560296","-6.248917222055752"
"St. Enda's Primary School","53.34029186794695","-6.267564007082011","Whitefriars St","Dublin","Dublin City","Ireland","Point","53.34029186794695","-6.267564007082011"
"Atlantic Language","53.344617703356015","-6.24813785445613","Magennis Place, Magennis Court","Dublin","Dublin City","Ireland","Point","53.344617703356015","-6.24813785445613"
"Travelling Languages - Language School","53.34158445320748","-6.251928806304931","6 Clare St","Dublin","Dublin City","Ireland","Point","53.34158445320748","-6.251928806304931"
"Goethe-Institut","53.335862287449665","-6.251446008682251","37 Merrion Sq","Dublin","Dublin City","Ireland","Point","53.335862287449665","-6.251446008682251"
"St. Michaels College Junior School","53.31893822923416","-6.2163967799107525","Dublin City","Dublin City","Ireland","","Point","53.31893822923416","-6.2163967799107525"
"NED Training Centre","53.35237072920126","-6.267529145092467","40 Lower Dominick St","Dublin 1","Ireland","","Point","53.35237072920126","-6.267529145092467"
"Gonzaga","53.316242","-6.248727","Sandford Close, Ranelagh","Dublin","Dublin City","Ireland","Point","53.316242","-6.248727"
"Erin School of English","53.34358294647466","-6.264653205871582","22 Dame St","Dublin","Dublin City","Ireland","Point","53.34358294647466","-6.264653205871582"
"Mount Temple Comprehensive School","53.369001419141696","-6.2218870955321455","Malahide Rd","Clontarf","Ireland","","Point","53.369001419141696","-6.2218870955321455"
"Infinity English College","53.340320386064406","-6.258845197106127","Dawson St","Dublin","Dublin City","Ireland","Point","53.340320386064406","-6.258845197106127"
"English Language Tutorial Academy (ELTA)","53.34742185077181","-6.2568783852833185","11 Burgh Quay","Dublin","Dublin City","Ireland","Point","53.34742185077181","-6.2568783852833185"
"The English Academy","53.34731604692676","-6.257371298901247","Ireland","","","","Point","53.34731604692676","-6.257371298901247"
"Trinity College","53.3441988069838","-6.257963465659788","College Green","Dublin","Dublin City","Ireland","Point","53.3441988069838","-6.257963465659788"
"EnglisHour📚","53.34868","-6.258832","Ireland","","","","Point","53.34868","-6.258832"
"ATC Language & Travel","53.34117679929994","-6.263448081615888","Ireland","","","","Point","53.34117679929994","-6.263448081615888"
"Smart-Edulink","53.3569","-6.25235","35 Summerstreet, Dublin 1","North City","Dublin City","Ireland","Point","53.3569","-6.25235"
"Emerald Cultural Institute","53.3138911518022","-6.259027989104673","10 Palmerston Pk","Dublin","Dublin City","Ireland","Point","53.3138911518022","-6.259027989104673"
"The International School of English  (ISE)","53.335702464327085","-6.263450035972092","26 Harcourt St","Dublin","Dublin City","Ireland","Point","53.335702464327085","-6.263450035972092"
"NCAD","53.34381777011789","-6.277887360243502","100 Thomas Street","Dublin","Dublin City","Ireland","Point","53.34381777011789","-6.277887360243502"
"the english academy","53.352331069985276","-6.260366722340645","Ireland","","","","Point","53.352331069985276","-6.260366722340645"
"Ec Dublin","53.32972","-6.264732","Dublin","Ireland","","","Point","53.32972","-6.264732"
"Griffith College Dublin","53.33148432559922","-6.278453647832611","S Circular Rd","Dublin","Dublin City","Ireland","Point","53.33148432559922","-6.278453647832611"
"ELA - English Language School : Build 2","53.35319103498161","-6.26498634386267","Ireland","","","","Point","53.35319103498161","-6.26498634386267"
"English Language Academy Ireland","53.35061022507205","-6.269550219033498","73 Capel St","Dublin","Dublin City","Ireland","Point","53.35061022507205","-6.269550219033498"
"Ibat College","53.355529","-6.26483","24-27 North Frederick Street","Dublin","Ireland","","Point","53.355529","-6.26483"
"Agni Acting Studio","53.344928033435224","-6.252529621124268","27 Pearse Street","Dublin","Dublin City","Ireland","Point","53.344928033435224","-6.252529621124268"
"Cooks Academy","53.34207211605773","-6.262996716315025","19 Sth WIlliam St","Dublin","Dublin City","Ireland","Point","53.34207211605773","-6.262996716315025"
"Waltons New School of Music","53.34272800292431","-6.264508017280357","69 Great Georges St","Dublin","Dublin City","Ireland","Point","53.34272800292431","-6.264508017280357"
