"name","latitud","longitud","formattedAddress__001","formattedAddress__002","formattedAddress__003","formattedAddress__004","formattedAddress__005","location__type","location__coordinates__001","location__coordinates__002"
"Starbucks","53.477957","-2.245602","10 -12 Mount Street, Ground Floor  Television House (10-12 Mount St)","Manchester","Greater Manchester","M2 5PB","United Kingdom","Point","53.477957","-2.245602"
"Starbucks","53.4737","-2.240029","1-5 Oxford Road","Manchester","M1 6EY","United Kingdom","","Point","53.4737","-2.240029"
"Starbucks","53.47827","-2.250158","Quay Street, Overseas House (Quay St.)","Manchester","Greater Manchester","M3 3HN","United Kingdom","Point","53.47827","-2.250158"
"Starbucks","53.482787","-2.245523","8-10 Exchange St (St. Annes Sq)","Manchester","Greater Manchester","M2 7HA","United Kingdom","Point","53.482787","-2.245523"
"Starbucks","53.481841","-2.238139","PICCADILLY MARKET ST, 1-3 PICCADILLY GARDENS (Tib St)","Manchester","M1 1LZ","United Kingdom","","Point","53.481841","-2.238139"
"Starbucks","53.483891","-2.241629","Arndale Centre, Unit R2 (Exchange Court)","Manchester","M4 3AQ","United Kingdom","","Point","53.483891","-2.241629"
"Starbucks","53.479729","-2.24825","129 Deansgate, Unit 2","Manchester","M3 3WR","United Kingdom","","Point","53.479729","-2.24825"
"Starbucks","53.485123","-2.242287","75 Hanging Ditch/Fennel Street, Pleer House (Fennel St)","Manchester","Greater Manchester","M4 3ES","United Kingdom","Point","53.485123","-2.242287"
"Starbucks","53.480403","-2.238051","City Tower, Unit E2A (Parker St)","Manchester","Greater Manchester","M1 4BD","United Kingdom","Point","53.480403","-2.238051"
"Starbucks","53.473669","-2.245633","Unit 7B, First Street (Unit 7B)","Manchester","M15 4FN","United Kingdom","","Point","53.473669","-2.245633"
"Starbucks","53.479403","-2.233352","Piccadilly (1-3)","Manchester","Greater Manchester","M1 3AQ","United Kingdom","Point","53.479403","-2.233352"
"Starbucks","53.479663099558735","-2.2333306074142456","3 Piccadilly Place","Manchester","M1 3BN","United Kingdom","","Point","53.479663099558735","-2.2333306074142456"
"Starbucks","53.474843","-2.235079","University of Manchester, Sackville St., 76","Manchester","M1 3NL","United Kingdom","","Point","53.474843","-2.235079"
"Starbucks","53.487631","-2.242806","Manchester Victoria Station (Victoria Station Approach)","Manchester","M3 1WY","United Kingdom","","Point","53.487631","-2.242806"
"Starbucks","53.477398","-2.2309115","Upper Concourse (Manchester Piccadilly Rail Station)","Manchester","Greater Manchester","M60 7RA","United Kingdom","Point","53.477398","-2.2309115"
"Starbucks","53.4675793398194","-2.2350454006916487","Chartwells, Blackwells University Bookshop, The Precinct, Oxford Road","Manchester","Greater Manchester","M13 9RN","United Kingdom","Point","53.4675793398194","-2.2350454006916487"
"Starbucks","53.461821","-2.22855","Nelson St (Nelson Street)","Manchester","M13 9NQ","United Kingdom","","Point","53.461821","-2.22855"
"Starbucks","53.49752361489351","-2.235647883737409","C/O Next, Unit 22, Manchester Fort Shopping Park, Cheetham Hill Road (Cheetham Hill Rd.)","Manchester","Greater Manchester","M8 8EP","United Kingdom","Point","53.49752361489351","-2.235647883737409"
"Starbucks","53.46678","-2.343557","Traders Avenue, Barton Dock Road (Barton Dock Rd)","Manchester","Greater Manchester","M41 7ZA","United Kingdom","Point","53.46678","-2.343557"
"Starbucks","53.464233","-2.345398","Trafford Centre, Unit 106, Peel Avenue (Peel Avenue)","Manchester","M17 8BL","United Kingdom","","Point","53.464233","-2.345398"
"Starbucks","53.466389","-2.349077","Mall Cafe 2, Regents Crescent (Regents Crescent)","Manchester","Greater Manchester","M17 8EH","United Kingdom","Point","53.466389","-2.349077"
"Starbucks","53.5186213378446","-2.159517764808567","Pleer House, 75 Hanging Ditch/Fennel Street","Manchester","M4 3ES","United Kingdom","","Point","53.5186213378446","-2.159517764808567"
"Starbucks","53.409678","-2.219274","Cineworld Parrs Wood Entertainment Centr, Wilmslow, East Didsbury","Manchester","M20 5PG","United Kingdom","","Point","53.409678","-2.219274"
"Starbucks","53.486427","-2.114078","Pamir Drive, Ashton Under Lyne (Village Hotel)","Tameside","OL7 0PG","United Kingdom","","Point","53.486427","-2.114078"
"Starbucks","53.49321617533339","-2.1115718255727423","Village Hotels, Pamir Drive, Ashton Under Lyne, Tameside","Manchester","OL7 0PG","United Kingdom","","Point","53.49321617533339","-2.1115718255727423"
"Starbucks","53.489702","-2.108571","Lord Sheldon Way","Ashton-under-Lyne","Tameside","OL7 0PG","United Kingdom","Point","53.489702","-2.108571"
"Starbucks","53.386273","-2.210838","Cheadle Road (Cheadle Rd)","Cheadle","Stockport","SK8 1HW","United Kingdom","Point","53.386273","-2.210838"
"Starbucks","53.465153","-2.089935","Captain Clarke Road","Hyde","Tameside","SK14 4QG","United Kingdom","Point","53.465153","-2.089935"
"Starbucks","53.405347","-2.162743","Stockport Station, Station Road, Edgeley","Stockport","SK3 9HZ","United Kingdom","","Point","53.405347","-2.162743"
"Starbucks","53.383752","-2.350354","Lloyd Street, Starbucks c/o Sainsbury's (Sainsburys)","Altrincham","Trafford","WA14 2SU","United Kingdom","Point","53.383752","-2.350354"
"Starbucks","53.590771","-2.275733","Rochdale Road, Waterford Business Park","Bury","Borough of Bury","BL9 7BQ","United Kingdom","Point","53.590771","-2.275733"
"Starbucks","53.47202711319489","-2.0533890007627082","Village Hotels, Captain Clarke Road","Hyde","Tameside","SK14 4QC","United Kingdom","Point","53.47202711319489","-2.0533890007627082"
"Starbucks","53.36401943302831","-2.2980679894070417","Marriott Hotel","Manchester Airport","United Kingdom","","","Point","53.36401943302831","-2.2980679894070417"
"Starbucks","53.604193","-2.170098","Manchester Road","Rochdale","OL11 3PT","United Kingdom","","Point","53.604193","-2.170098"
"Starbucks","53.408373","-2.59632","Unit 8, Junction 9 Retail Park","Warrington","WA2 8TW","United Kingdom","","Point","53.408373","-2.59632"
"Starbucks","53.389479","-2.595771","7 The Mall (7 The Mall)","Warrington","WA1 1QE","United Kingdom","","Point","53.389479","-2.595771"
"Starbucks","53.54676940648893","-2.631040506647146","Standishgate","Wigan"," 1PE","United Kingdom","","Point","53.54676940648893","-2.631040506647146"
"Starbucks","53.415676","-2.640151","Unit 2, Apollo Park","Warrington","WA5 7YA","United Kingdom","","Point","53.415676","-2.640151"
"Starbucks","53.757298","-2.705574","Unit 3.3A and 3.3B","Preston","Lancashire","PR1 8HL","United Kingdom","Point","53.757298","-2.705574"
"Starbucks","53.793018","-1.754984","Centenary Square, Market Street, Part Unit C (Centenary Sq)","Bradford","BD1 1HY","United Kingdom","","Point","53.793018","-1.754984"
"Starbucks","53.404068","-2.985833","104a Paradise Street (Liverpool ONE)","Liverpool","L1 8JF","United Kingdom","","Point","53.404068","-2.985833"
"Starbucks","53.403189","-2.987509","Unit P28, Liverpool One, 2 Thomas Steers Way (Custom House Place)","Liverpool","L1 8LW","United Kingdom","","Point","53.403189","-2.987509"
"Starbucks","53.755371","-1.571164","Leeds White Rose, Dewsbury Road (A653) (White Rose Centre)","Leeds","LS27 8PU","United Kingdom","","Point","53.755371","-1.571164"
"Starbucks","53.303124","-1.138126","St. Anne's drive, Worksop","Nottinghamshire","S80 3QD","United Kingdom","","Point","53.303124","-1.138126"
"Starbucks","53.267693732775655","-3.517857883528127","Kinmel Park, A55 Westbound, Bodelwyddon","Rhyl","Denbighshire","LL18 5XW","United Kingdom","Point","53.267693732775655","-3.517857883528127"
"Starbucks","52.952912","-1.150472","1 South Parade (at Wheeler Gate)","Nottingham","Nottinghamshire","NG1 2JS","United Kingdom","Point","52.952912","-1.150472"
"Starbucks","52.586637","-1.98674","Crown Wharf, Unit 15c (Shaw St)","Walsall","WS2 8LL","United Kingdom","","Point","52.586637","-1.98674"
